{"type": "FeatureCollection", "features": [ {"type": "Feature", "properties": {"norad_id": 31715, "name": "FENGYUN 1C DEB", "group": "fengyun-1c-debris", "lat": 41.27754166794618, "lon": 173.80312145067344, "alt_km": 646.6895098940113, "timestamp": "2025-12-18T14:52:08.309566+00:00", "meta": {"OBJECT_NAME": "FENGYUN 1C DEB", "OBJECT_ID": "1999-025CDN", "EPOCH": "2025-12-18T06:24:34.673472", "MEAN_MOTION": 14.5220919, "ECCENTRICITY": 0.01870722, "INCLINATION": 99.2921, "RA_OF_ASC_NODE": 181.6763, "ARG_OF_PERICENTER": 103.0013, "MEAN_ANOMALY": 259.2139, "EPHEMERIS_TYPE": 0, "CLASSIFICATION_TYPE": "U", "NORAD_CAT_ID": 31715, "ELEMENT_SET_NO": 999, "REV_AT_EPOCH": 61797, "BSTAR": 0.00065902481, "MEAN_MOTION_DOT": 3.301e-05, "MEAN_MOTION_DDOT": 0}, "tle": {"line1": "1 31715U 99025CDN 25352.26706798  .00003301  00000+0  65902-3 0  9995", "line2": "2 31715  99.2921 181.6763 0187072 103.0013 259.2139 14.52209190617970"}}, "geometry": {"type": "Point", "coordinates": [173.80312145067344, 41.27754166794618]}}, {"type": "Feature", "properties": {"norad_id": 31716, "name": "FENGYUN 1C DEB", "group": "fengyun-1c-debris", "lat": 38.230720319612225, "lon": -115.55719276347645, "alt_km": 801.0681333342945, "timestamp": "2025-12-18T14:52:08.309579+00:00", "meta": {"OBJECT_NAME": "FENGYUN 1C DEB", "OBJECT_ID": "1999-025CDP", "EPOCH": "2025-12-18T05:07:46.520832", "MEAN_MOTION": 14.03631041, "ECCENTRICITY": 0.01308082, "INCLINATION": 98.5551, "RA_OF_ASC_NODE": 250.8713, "ARG_OF_PERICENTER": 75.9481, "MEAN_ANOMALY": 74.3189, "EPHEMERIS_TYPE": 0, "CLASSIFICATION_TYPE": "U", "NORAD_CAT_ID": 31716, "ELEMENT_SET_NO": 999, "REV_AT_EPOCH": 94196, "BSTAR": 0.0011575331, "MEAN_MOTION_DOT": 1.922e-05, "MEAN_MOTION_DDOT": 0}, "tle": {"line1": "1 31716U 99025CDP 25352.21373288  .00001922  00000+0  11575-2 0  9998", "line2": "2 31716  98.5551 250.8713 0130808  75.9481  74.3189 14.03631041941967"}}, "geometry": {"type": "Point", "coordinates": [-115.55719276347645, 38.230720319612225]}}, {"type": "Feature", "properties": {"norad_id": 31720, "name": "FENGYUN 1C DEB", "group": "fengyun-1c-debris", "lat": -12.577767291750574, "lon": 83.15731841368552, "alt_km": 655.38810016754, "timestamp": "2025-12-18T14:52:08.309589+00:00", "meta": {"OBJECT_NAME": "FENGYUN 1C DEB", "OBJECT_ID": "1999-025CDT", "EPOCH": "2025-12-17T00:28:52.679424", "MEAN_MOTION": 14.71860526, "ECCENTRICITY": 0.01002517, "INCLINATION": 99.048, "RA_OF_ASC_NODE": 263.4173, "ARG_OF_PERICENTER": 110.3863, "MEAN_ANOMALY": 250.8144, "EPHEMERIS_TYPE": 0, "CLASSIFICATION_TYPE": "U", "NORAD_CAT_ID": 31720, "ELEMENT_SET_NO": 999, "REV_AT_EPOCH": 98299, "BSTAR": 0.00056875806, "MEAN_MOTION_DOT": 3.786e-05, "MEAN_MOTION_DDOT": 0}, "tle": {"line1": "1 31720U 99025CDT 25351.02005416  .00003786  00000+0  56876-3 0  9990", "line2": "2 31720  99.0480 263.4173 0100251 110.3863 250.8144 14.71860526982993"}}, "geometry": {"type": "Point", "coordinates": [83.15731841368552, -12.577767291750574]}}, {"type": "Feature", "properties": {"norad_id": 31721, "name": "FENGYUN 1C DEB", "group": "fengyun-1c-debris", "lat": 1.241129186270213, "lon": -27.82980978984729, "alt_km": 1216.0479057261055, "timestamp": "2025-12-18T14:52:08.309599+00:00", "meta": {"OBJECT_NAME": "FENGYUN 1C DEB", "OBJECT_ID": "1999-025CDU", "EPOCH": "2025-12-14T04:19:36.790752", "MEAN_MOTION": 13.73779302, "ECCENTRICITY": 0.03174412, "INCLINATION": 99.7811, "RA_OF_ASC_NODE": 327.8381, "ARG_OF_PERICENTER": 179.7828, "MEAN_ANOMALY": 199.0539, "EPHEMERIS_TYPE": 0, "CLASSIFICATION_TYPE": "U", "NORAD_CAT_ID": 31721, "ELEMENT_SET_NO": 999, "REV_AT_EPOCH": 67406, "BSTAR": 0.00045246287, "MEAN_MOTION_DOT": 5.63e-06, "MEAN_MOTION_DDOT": 0}, "tle": {"line1": "1 31721U 99025CDU 25348.18028693  .00000563  00000+0  45246-3 0  9995", "line2": "2 31721  99.7811 327.8381 0317441 179.7828 199.0539 13.73779302674066"}}, "geometry": {"type": "Point", "coordinates": [-27.82980978984729, 1.241129186270213]}}, {"type": "Feature", "properties": {"norad_id": 31724, "name": "FENGYUN 1C DEB", "group": "fengyun-1c-debris", "lat": -25.415109146717544, "lon": 1.9570408276801148, "alt_km": 770.1735074314893, "timestamp": "2025-12-18T14:52:08.309609+00:00", "meta": {"OBJECT_NAME": "FENGYUN 1C DEB", "OBJECT_ID": "1999-025CDX", "EPOCH": "2025-12-18T06:42:13.489056", "MEAN_MOTION": 14.4921063, "ECCENTRICITY": 0.01518175, "INCLINATION": 97.854, "RA_OF_ASC_NODE": 357.8795, "ARG_OF_PERICENTER": 224.9908, "MEAN_ANOMALY": 133.8907, "EPHEMERIS_TYPE": 0, "CLASSIFICATION_TYPE": "U", "NORAD_CAT_ID": 31724, "ELEMENT_SET_NO": 999, "REV_AT_EPOCH": 64572, "BSTAR": 0.0020617132, "MEAN_MOTION_DOT": 9.059e-05, "MEAN_MOTION_DDOT": 0}, "tle": {"line1": "1 31724U 99025CDX 25352.27932279  .00009059  00000+0  20617-2 0  9990", "line2": "2 31724  97.8540 357.8795 0151817 224.9908 133.8907 14.49210630645728"}}, "geometry": {"type": "Point", "coordinates": [1.9570408276801148, -25.415109146717544]}}, {"type": "Feature", "properties": {"norad_id": 31725, "name": "FENGYUN 1C DEB", "group": "fengyun-1c-debris", "lat": 17.167234881182573, "lon": 31.365702594004507, "alt_km": 1841.3755615708533, "timestamp": "2025-12-18T14:52:08.309619+00:00", "meta": {"OBJECT_NAME": "FENGYUN 1C DEB", "OBJECT_ID": "1999-025CDY", "EPOCH": "2025-12-17T21:05:21.230880", "MEAN_MOTION": 12.79203585, "ECCENTRICITY": 0.06944571, "INCLINATION": 99.1801, "RA_OF_ASC_NODE": 207.8945, "ARG_OF_PERICENTER": 323.3807, "MEAN_ANOMALY": 32.1667, "EPHEMERIS_TYPE": 0, "CLASSIFICATION_TYPE": "U", "NORAD_CAT_ID": 31725, "ELEMENT_SET_NO": 999, "REV_AT_EPOCH": 86547, "BSTAR": 0.0022154725, "MEAN_MOTION_DOT": 1.348e-05, "MEAN_MOTION_DDOT": 0}, "tle": {"line1": "1 31725U 99025CDY 25351.87871795  .00001348  00000+0  22155-2 0  9993", "line2": "2 31725  99.1801 207.8945 0694457 323.3807  32.1667 12.79203585865471"}}, "geometry": {"type": "Point", "coordinates": [31.365702594004507, 17.167234881182573]}}, {"type": "Feature", "properties": {"norad_id": 31727, "name": "FENGYUN 1C DEB", "group": "fengyun-1c-debris", "lat": 80.4018909413098, "lon": 37.479285281654406, "alt_km": 773.6734422192067, "timestamp": "2025-12-18T14:52:08.309629+00:00", "meta": {"OBJECT_NAME": "FENGYUN 1C DEB", "OBJECT_ID": "1999-025CEA", "EPOCH": "2025-12-18T06:15:11.190816", "MEAN_MOTION": 14.37077056, "ECCENTRICITY": 0.00323102, "INCLINATION": 98.8654, "RA_OF_ASC_NODE": 104.4745, "ARG_OF_PERICENTER": 323.1316, "MEAN_ANOMALY": 66.6962, "EPHEMERIS_TYPE": 0, "CLASSIFICATION_TYPE": "U", "NORAD_CAT_ID": 31727, "ELEMENT_SET_NO": 999, "REV_AT_EPOCH": 71748, "BSTAR": 0.0016261086, "MEAN_MOTION_DOT": 4.813e-05, "MEAN_MOTION_DDOT": 0}, "tle": {"line1": "1 31727U 99025CEA 25352.26054619  .00004813  00000+0  16261-2 0  9998", "line2": "2 31727  98.8654 104.4745 0032310 323.1316  66.6962 14.37077056717487"}}, "geometry": {"type": "Point", "coordinates": [37.479285281654406, 80.4018909413098]}}, {"type": "Feature", "properties": {"norad_id": 31731, "name": "FENGYUN 1C DEB", "group": "fengyun-1c-debris", "lat": -29.72066285230194, "lon": 46.707867383548525, "alt_km": 766.4662475137056, "timestamp": "2025-12-18T14:52:08.309639+00:00", "meta": {"OBJECT_NAME": "FENGYUN 1C DEB", "OBJECT_ID": "1999-025CEE", "EPOCH": "2025-11-27T02:07:07.827456", "MEAN_MOTION": 14.40063792, "ECCENTRICITY": 0.00116613, "INCLINATION": 99.3084, "RA_OF_ASC_NODE": 17.9462, "ARG_OF_PERICENTER": 144.9647, "MEAN_ANOMALY": 215.2308, "EPHEMERIS_TYPE": 0, "CLASSIFICATION_TYPE": "U", "NORAD_CAT_ID": 31731, "ELEMENT_SET_NO": 999, "REV_AT_EPOCH": 95605, "BSTAR": 0.0018623031, "MEAN_MOTION_DOT": 5.831e-05, "MEAN_MOTION_DDOT": 0}, "tle": {"line1": "1 31731U 99025CEE 25331.08828504  .00005831  00000+0  18623-2 0  9997", "line2": "2 31731  99.3084  17.9462 0011661 144.9647 215.2308 14.40063792956051"}}, "geometry": {"type": "Point", "coordinates": [46.707867383548525, -29.72066285230194]}}, {"type": "Feature", "properties": {"norad_id": 31732, "name": "FENGYUN 1C DEB", "group": "fengyun-1c-debris", "lat": 20.167504193562195, "lon": 23.938556517324116, "alt_km": 877.0316195636497, "timestamp": "2025-12-18T14:52:08.309652+00:00", "meta": {"OBJECT_NAME": "FENGYUN 1C DEB", "OBJECT_ID": "1999-025CEF", "EPOCH": "2025-12-17T13:15:59.741856", "MEAN_MOTION": 14.1225966, "ECCENTRICITY": 0.00398279, "INCLINATION": 98.5726, "RA_OF_ASC_NODE": 26.0942, "ARG_OF_PERICENTER": 231.4912, "MEAN_ANOMALY": 128.2686, "EPHEMERIS_TYPE": 0, "CLASSIFICATION_TYPE": "U", "NORAD_CAT_ID": 31732, "ELEMENT_SET_NO": 999, "REV_AT_EPOCH": 64398, "BSTAR": 0.00028723871, "MEAN_MOTION_DOT": 4.9e-06, "MEAN_MOTION_DDOT": 0}, "tle": {"line1": "1 31732U 99025CEF 25351.55277479  .00000490  00000+0  28724-3 0  9991", "line2": "2 31732  98.5726  26.0942 0039827 231.4912 128.2686 14.12259660643988"}}, "geometry": {"type": "Point", "coordinates": [23.938556517324116, 20.167504193562195]}}, {"type": "Feature", "properties": {"norad_id": 31734, "name": "FENGYUN 1C DEB", "group": "fengyun-1c-debris", "lat": -78.88558879991031, "lon": 34.142933673050294, "alt_km": 779.9859691958918, "timestamp": "2025-12-18T14:52:08.309663+00:00", "meta": {"OBJECT_NAME": "FENGYUN 1C DEB", "OBJECT_ID": "1999-025CEH", "EPOCH": "2025-12-17T05:38:30.357312", "MEAN_MOTION": 14.2902964, "ECCENTRICITY": 0.01035042, "INCLINATION": 98.4953, "RA_OF_ASC_NODE": 343.2584, "ARG_OF_PERICENTER": 354.3593, "MEAN_ANOMALY": 5.6416, "EPHEMERIS_TYPE": 0, "CLASSIFICATION_TYPE": "U", "NORAD_CAT_ID": 31734, "ELEMENT_SET_NO": 999, "REV_AT_EPOCH": 96515, "BSTAR": 0.00042036115, "MEAN_MOTION_DOT": 1.084e-05, "MEAN_MOTION_DDOT": 0}, "tle": {"line1": "1 31734U 99025CEH 25351.23507358  .00001084  00000+0  42036-3 0  9992", "line2": "2 31734  98.4953 343.2584 0103504 354.3593   5.6416 14.29029640965157"}}, "geometry": {"type": "Point", "coordinates": [34.142933673050294, -78.88558879991031]}}]}